{
    "links": {
        "self": "http://www.neowsapp.com/rest/v1/neo/3472300?api_key=iIulBulltgU6a56xZRHN4H3l9WmuAYTsLGpBGhQ2"
    },
    "id": "3472300",
    "neo_reference_id": "3472300",
    "name": "(2009 UZ17)",
    "designation": "2009 UZ17",
    "nasa_jpl_url": "http://ssd.jpl.nasa.gov/sbdb.cgi?sstr=3472300",
    "absolute_magnitude_h": 22.4,
    "estimated_diameter": {
        "kilometers": {
            "estimated_diameter_min": 0.0880146521,
            "estimated_diameter_max": 0.1968067451
        },
        "meters": {
            "estimated_diameter_min": 88.0146520901,
            "estimated_diameter_max": 196.8067450894
        },
        "miles": {
            "estimated_diameter_min": 0.0546897524,
            "estimated_diameter_max": 0.122290004
        },
        "feet": {
            "estimated_diameter_min": 288.7619911632,
            "estimated_diameter_max": 645.6914415591
        }
    },
    "is_potentially_hazardous_asteroid": false,
    "close_approach_data": [
        {
            "close_approach_date": "1922-11-12",
            "close_approach_date_full": "1922-Nov-12 18:03",
            "epoch_date_close_approach": -1487483820000,
            "relative_velocity": {
                "kilometers_per_second": "23.0401201917",
                "kilometers_per_hour": "82944.4326901286",
                "miles_per_hour": "51538.4448568191"
            },
            "miss_distance": {
                "astronomical": "0.3768026232",
                "lunar": "146.5762204248",
                "kilometers": "56368869.841132584",
                "miles": "35025991.5424702992"
            },
            "orbiting_body": "Earth"
        },
        {
            "close_approach_date": "2009-10-17",
            "close_approach_date_full": "2009-Oct-17 22:31",
            "epoch_date_close_approach": 1255818660000,
            "relative_velocity": {
                "kilometers_per_second": "12.4253392969",
                "kilometers_per_hour": "44731.2214688706",
                "miles_per_hour": "27794.2414732546"
            },
            "miss_distance": {
                "astronomical": "0.0612072781",
                "lunar": "23.8096311809",
                "kilometers": "9156478.432257647",
                "miles": "5689571.8688516486"
            },
            "orbiting_body": "Earth"
        },
        {
            "close_approach_date": "2096-08-06",
            "close_approach_date_full": "2096-Aug-06 15:03",
            "epoch_date_close_approach": 3995103780000,
            "relative_velocity": {
                "kilometers_per_second": "11.0080898588",
                "kilometers_per_hour": "39629.1234915979",
                "miles_per_hour": "24623.9962050987"
            },
            "miss_distance": {
                "astronomical": "0.0437437104",
                "lunar": "17.0163033456",
                "kilometers": "6543965.901736848",
                "miles": "4066231.8576625824"
            },
            "orbiting_body": "Earth"
        },
        {
            "close_approach_date": "2111-11-26",
            "close_approach_date_full": "2111-Nov-26 05:27",
            "epoch_date_close_approach": 4477958820000,
            "relative_velocity": {
                "kilometers_per_second": "27.2744127416",
                "kilometers_per_hour": "98187.8858697348",
                "miles_per_hour": "61010.1338616694"
            },
            "miss_distance": {
                "astronomical": "0.4953079632",
                "lunar": "192.6747976848",
                "kilometers": "74097016.288758384",
                "miles": "46041750.9374743392"
            },
            "orbiting_body": "Earth"
        }
    ],
    "orbital_data": {
        "orbit_id": "13",
        "orbit_determination_date": "2017-04-06 08:59:27",
        "first_observation_date": "2009-10-22",
        "last_observation_date": "2009-12-11",
        "data_arc_in_days": 50,
        "observations_used": 43,
        "orbit_uncertainty": "6",
        "minimum_orbit_intersection": ".0382871",
        "jupiter_tisserand_invariant": "3.206",
        "epoch_osculation": "2459000.5",
        "eccentricity": ".6266110182627511",
        "semi_major_axis": "2.425710022108383",
        "inclination": "4.283479629486264",
        "ascending_node_longitude": "152.9422445243708",
        "orbital_period": "1379.929028595436",
        "perihelion_distance": ".9057333951448887",
        "perihelion_argument": "192.6427044308645",
        "aphelion_distance": "3.945686649071878",
        "perihelion_time": "2459246.591624056635",
        "mean_anomaly": "295.7988832581025",
        "mean_motion": ".2608829820519298",
        "equinox": "J2000",
        "orbit_class": {
            "orbit_class_type": "APO",
            "orbit_class_description": "Near-Earth asteroid orbits which cross the Earth’s orbit similar to that of 1862 Apollo",
            "orbit_class_range": "a (semi-major axis) > 1.0 AU; q (perihelion) < 1.017 AU"
        }
    },
    "is_sentry_object": false
}